STARLINK-36381
1 67952U 26037W   26090.64305497 -.00113041  00000+0 -27932-2 0  9998
2 67952  42.9996  67.1371 0005057  45.4934 314.6335 15.40093314  6697
